0 DELTA 1 DEB
1 17000U 76077EX  13283.05410534 -.00000357  00000-0 -56447-2 0  5120
2 17000 102.5145 334.9241 0683559 023.8600 038.3605 11.27689615213994
0 DELTA 1 DEB
1 17000U 76077EX  13286.07101157 -.00000067  00000-0 -58218-3 0  5131
2 17000 102.5157 337.4297 0683143 019.2634 046.1991 11.27685365214333
0 DELTA 1 DEB
1 17000U 76077EX  13288.10817424  .00000115  00000-0  25898-2 0  5148
2 17000 102.5162 339.1218 0682982 016.1672 036.5068 11.27682891214563
0 DELTA 1 DEB
1 17000U 76077EX  13289.07757912  .00000221  00000-0  44395-2 0  5152
2 17000 102.5168 339.9267 0682774 014.6620 012.0591 11.27684631214672
0 DELTA 1 DEB
1 17000U 76077EX  13290.66819466 -.00000134  00000-0  10000-3 0  5175
2 17000 102.5121 341.2492 0683858 012.4915 349.2673 11.27685889214856
0 DELTA 1 DEB
1 17000U 76077EX  13290.66820157 -.00002527  00000-0  10000-3 0  5161
2 17000 102.5119 341.2440 0681555 012.9123 348.8948 11.27674636214830
0 DELTA 1 DEB
1 17000U 76077EX  13290.69537221  .00000400  00000-0  75790-2 0  5164
2 17000 102.5176 341.2705 0682711 012.1907 099.8588 11.27684334214855
0 DELTA 1 DEB
1 17000U 76077EX  13292.80834128  .00000531  00000-0  98655-2 0  5176
2 17000 102.5192 343.0259 0682746 008.9566 037.9487 11.27685404215096
0 DELTA 1 DEB
1 17000U 76077EX  13295.11621801  .00000705  00000-0  12901-1 0  5188
2 17000 102.5217 344.9447 0682905 005.4174 047.3264 11.27686553215350
